{"fetched_at":"2026-07-09T18:17:07.615Z","source":"https://celestrak.org/NORAD/elements/gp.php?NAME=ICEYE&FORMAT=JSON","constellation":"iceye","records":[{"OBJECT_NAME":"ICEYE-X53","OBJECT_ID":"2025-135BJ","EPOCH":"2026-07-08T22:59:53.433312","CLASSIFICATION_TYPE":"U","MEAN_MOTION":15.00868492,"ECCENTRICITY":0.00016245,"INCLINATION":97.7367,"RA_OF_ASC_NODE":306.6459,"ARG_OF_PERICENTER":165.2225,"MEAN_ANOMALY":194.9046,"EPHEMERIS_TYPE":0,"NORAD_CAT_ID":64584,"ELEMENT_SET_NO":999,"REV_AT_EPOCH":5734,"BSTAR":0.000025538229,"MEAN_MOTION_DOT":0.00000265,"MEAN_MOTION_DDOT":0},{"OBJECT_NAME":"ICEYE-X65","OBJECT_ID":"2025-248H","EPOCH":"2026-07-08T22:41:54.554784","CLASSIFICATION_TYPE":"U","MEAN_MOTION":15.07903294,"ECCENTRICITY":0.00048434,"INCLINATION":45.4054,"RA_OF_ASC_NODE":19.7638,"ARG_OF_PERICENTER":164.1787,"MEAN_ANOMALY":195.9246,"EPHEMERIS_TYPE":0,"NORAD_CAT_ID":66300,"ELEMENT_SET_NO":999,"REV_AT_EPOCH":3880,"BSTAR":0.0001423371,"MEAN_MOTION_DOT":0.0000197,"MEAN_MOTION_DDOT":0},{"OBJECT_NAME":"ICEYE-X66","OBJECT_ID":"2025-248J","EPOCH":"2026-07-08T13:14:06.834336","CLASSIFICATION_TYPE":"U","MEAN_MOTION":15.09149054,"ECCENTRICITY":0.0004446,"INCLINATION":45.4021,"RA_OF_ASC_NODE":20.9877,"ARG_OF_PERICENTER":157.5963,"MEAN_ANOMALY":202.5114,"EPHEMERIS_TYPE":0,"NORAD_CAT_ID":66301,"ELEMENT_SET_NO":999,"REV_AT_EPOCH":3873,"BSTAR":0.0001546885,"MEAN_MOTION_DOT":0.00002243,"MEAN_MOTION_DDOT":0},{"OBJECT_NAME":"ICEYE-X67","OBJECT_ID":"2025-248K","EPOCH":"2026-07-08T05:52:56.060256","CLASSIFICATION_TYPE":"U","MEAN_MOTION":15.09128573,"ECCENTRICITY":0.00059712,"INCLINATION":45.4058,"RA_OF_ASC_NODE":22.1771,"ARG_OF_PERICENTER":156.3678,"MEAN_ANOMALY":203.748,"EPHEMERIS_TYPE":0,"NORAD_CAT_ID":66302,"ELEMENT_SET_NO":999,"REV_AT_EPOCH":3870,"BSTAR":0.00012721252,"MEAN_MOTION_DOT":0.00001799,"MEAN_MOTION_DDOT":0},{"OBJECT_NAME":"ICEYE-X58","OBJECT_ID":"2025-276CP","EPOCH":"2026-07-08T18:00:52.044768","CLASSIFICATION_TYPE":"U","MEAN_MOTION":15.17291067,"ECCENTRICITY":0.00020396,"INCLINATION":97.4199,"RA_OF_ASC_NODE":262.7597,"ARG_OF_PERICENTER":268.9195,"MEAN_ANOMALY":91.1805,"EPHEMERIS_TYPE":0,"NORAD_CAT_ID":66751,"ELEMENT_SET_NO":999,"REV_AT_EPOCH":3368,"BSTAR":0.000089600639,"MEAN_MOTION_DOT":0.00001719,"MEAN_MOTION_DDOT":0},{"OBJECT_NAME":"ICEYE-X59","OBJECT_ID":"2025-276CQ","EPOCH":"2026-07-08T17:52:40.387296","CLASSIFICATION_TYPE":"U","MEAN_MOTION":15.00715503,"ECCENTRICITY":0.00004455,"INCLINATION":97.4372,"RA_OF_ASC_NODE":260.122,"ARG_OF_PERICENTER":144.3253,"MEAN_ANOMALY":215.8002,"EPHEMERIS_TYPE":0,"NORAD_CAT_ID":66752,"ELEMENT_SET_NO":999,"REV_AT_EPOCH":3350,"BSTAR":0.00026346019,"MEAN_MOTION_DOT":0.00003282,"MEAN_MOTION_DDOT":0},{"OBJECT_NAME":"ICEYE-X60","OBJECT_ID":"2025-276CR","EPOCH":"2026-07-08T18:38:26.169792","CLASSIFICATION_TYPE":"U","MEAN_MOTION":15.11110867,"ECCENTRICITY":0.00007068,"INCLINATION":97.4297,"RA_OF_ASC_NODE":261.7945,"ARG_OF_PERICENTER":344.3487,"MEAN_ANOMALY":15.7721,"EPHEMERIS_TYPE":0,"NORAD_CAT_ID":66753,"ELEMENT_SET_NO":999,"REV_AT_EPOCH":3362,"BSTAR":0.00015423119,"MEAN_MOTION_DOT":0.00002521,"MEAN_MOTION_DDOT":0},{"OBJECT_NAME":"ICEYE-X61","OBJECT_ID":"2025-276CS","EPOCH":"2026-07-08T18:34:59.315232","CLASSIFICATION_TYPE":"U","MEAN_MOTION":15.18585322,"ECCENTRICITY":0.00016251,"INCLINATION":97.4192,"RA_OF_ASC_NODE":262.8622,"ARG_OF_PERICENTER":249.6726,"MEAN_ANOMALY":110.4334,"EPHEMERIS_TYPE":0,"NORAD_CAT_ID":66754,"ELEMENT_SET_NO":999,"REV_AT_EPOCH":3369,"BSTAR":0.00010344088,"MEAN_MOTION_DOT":0.00002071,"MEAN_MOTION_DDOT":0},{"OBJECT_NAME":"ICEYE-X62","OBJECT_ID":"2025-276CT","EPOCH":"2026-07-08T17:33:38.443680","CLASSIFICATION_TYPE":"U","MEAN_MOTION":15.10117598,"ECCENTRICITY":0.00007834,"INCLINATION":97.4194,"RA_OF_ASC_NODE":261.2654,"ARG_OF_PERICENTER":320.3388,"MEAN_ANOMALY":39.7785,"EPHEMERIS_TYPE":0,"NORAD_CAT_ID":66755,"ELEMENT_SET_NO":999,"REV_AT_EPOCH":3358,"BSTAR":0.000094518905,"MEAN_MOTION_DOT":0.00001479,"MEAN_MOTION_DDOT":0},{"OBJECT_NAME":"ICEYE-X63","OBJECT_ID":"2026-004K","EPOCH":"2026-07-08T22:21:57.651264","CLASSIFICATION_TYPE":"U","MEAN_MOTION":14.88341294,"ECCENTRICITY":0.00057119,"INCLINATION":97.8009,"RA_OF_ASC_NODE":188.2319,"ARG_OF_PERICENTER":67.0565,"MEAN_ANOMALY":293.1254,"EPHEMERIS_TYPE":0,"NORAD_CAT_ID":67372,"ELEMENT_SET_NO":999,"REV_AT_EPOCH":2653,"BSTAR":0.000078158878,"MEAN_MOTION_DOT":0.00000669,"MEAN_MOTION_DDOT":0},{"OBJECT_NAME":"ICEYE-X64","OBJECT_ID":"2026-004L","EPOCH":"2026-07-08T21:53:04.338528","CLASSIFICATION_TYPE":"U","MEAN_MOTION":14.87977073,"ECCENTRICITY":0.00075254,"INCLINATION":97.8022,"RA_OF_ASC_NODE":188.1338,"ARG_OF_PERICENTER":70.7889,"MEAN_ANOMALY":289.4141,"EPHEMERIS_TYPE":0,"NORAD_CAT_ID":67373,"ELEMENT_SET_NO":999,"REV_AT_EPOCH":2652,"BSTAR":0.0001076961,"MEAN_MOTION_DOT":0.00000934,"MEAN_MOTION_DDOT":0},{"OBJECT_NAME":"ICEYE-X71","OBJECT_ID":"2026-067CG","EPOCH":"2026-07-08T20:41:21.355008","CLASSIFICATION_TYPE":"U","MEAN_MOTION":14.91774751,"ECCENTRICITY":0.00016055,"INCLINATION":97.7616,"RA_OF_ASC_NODE":147.7652,"ARG_OF_PERICENTER":8.1643,"MEAN_ANOMALY":351.9601,"EPHEMERIS_TYPE":0,"NORAD_CAT_ID":68494,"ELEMENT_SET_NO":999,"REV_AT_EPOCH":1495,"BSTAR":0.00011735503,"MEAN_MOTION_DOT":0.00001127,"MEAN_MOTION_DDOT":0},{"OBJECT_NAME":"ICEYE-X73","OBJECT_ID":"2026-067CJ","EPOCH":"2026-07-08T21:24:38.379168","CLASSIFICATION_TYPE":"U","MEAN_MOTION":14.92330572,"ECCENTRICITY":0.00010331,"INCLINATION":97.7612,"RA_OF_ASC_NODE":147.8755,"ARG_OF_PERICENTER":157.7715,"MEAN_ANOMALY":202.3549,"EPHEMERIS_TYPE":0,"NORAD_CAT_ID":68496,"ELEMENT_SET_NO":999,"REV_AT_EPOCH":1496,"BSTAR":0.00020439187,"MEAN_MOTION_DOT":0.00002033,"MEAN_MOTION_DDOT":0},{"OBJECT_NAME":"ICEYE-X75","OBJECT_ID":"2026-067CK","EPOCH":"2026-07-08T19:53:29.821632","CLASSIFICATION_TYPE":"U","MEAN_MOTION":14.92165254,"ECCENTRICITY":0.00008806,"INCLINATION":97.7602,"RA_OF_ASC_NODE":147.7835,"ARG_OF_PERICENTER":152.9334,"MEAN_ANOMALY":207.1931,"EPHEMERIS_TYPE":0,"NORAD_CAT_ID":68497,"ELEMENT_SET_NO":999,"REV_AT_EPOCH":1495,"BSTAR":0.000098021288,"MEAN_MOTION_DOT":0.00000942,"MEAN_MOTION_DDOT":0},{"OBJECT_NAME":"ICEYE-X74","OBJECT_ID":"2026-067CN","EPOCH":"2026-07-08T20:40:06.678624","CLASSIFICATION_TYPE":"U","MEAN_MOTION":14.9177518,"ECCENTRICITY":0.00014253,"INCLINATION":97.7622,"RA_OF_ASC_NODE":147.7742,"ARG_OF_PERICENTER":4.7683,"MEAN_ANOMALY":355.3549,"EPHEMERIS_TYPE":0,"NORAD_CAT_ID":68500,"ELEMENT_SET_NO":999,"REV_AT_EPOCH":1495,"BSTAR":0.00011638138,"MEAN_MOTION_DOT":0.00001117,"MEAN_MOTION_DDOT":0},{"OBJECT_NAME":"ICEYE-X76","OBJECT_ID":"2026-067CQ","EPOCH":"2026-07-08T20:33:58.095360","CLASSIFICATION_TYPE":"U","MEAN_MOTION":14.91742613,"ECCENTRICITY":0.00011026,"INCLINATION":97.7635,"RA_OF_ASC_NODE":147.7876,"ARG_OF_PERICENTER":353.5323,"MEAN_ANOMALY":6.5881,"EPHEMERIS_TYPE":0,"NORAD_CAT_ID":68502,"ELEMENT_SET_NO":999,"REV_AT_EPOCH":1495,"BSTAR":0.000064662861,"MEAN_MOTION_DOT":0.00000596,"MEAN_MOTION_DDOT":0}]}
